GLOBALSTAR M094         
1 39074U 13005C   25085.90449792 -.00000093  00000+0  61171-4 0  9998
2 39074  51.9953  72.6399 0000664  85.6720 274.4222 12.62269359561984
GLOBALSTAR M096         
1 39075U 13005D   25086.15531365 -.00000073  00000+0  17238-3 0  9997
2 39075  52.0053 120.3298 0000613  91.7782 268.3155 12.62269837561288
GLOBALSTAR M078         
1 39076U 13005E   25085.81162493 -.00000182  00000+0 -43481-3 0  9993
2 39076  51.9871 205.9943 0000912  40.8068 319.2866 12.62259770559519
GLOBALSTAR M095         
1 39077U 13005F   25085.75919826 -.00000108  00000+0 -22430-4 0  9997
2 39077  51.9790 203.3938 0000954  77.3899 282.7074 12.62268110559365
GLOBALSTAR M087         
1 52888U 22064A   25086.18577518 -.00000072  00000+0  17538-3 0  9994
2 52888  51.9816 343.5001 0000816  71.9723 288.1232 12.62269883135016
